MEAN_MOTION;ECCENTRICITY;INCLINATION;RA_OF_ASC_NODE;ARG_OF_PERICENTER;MEAN_ANOMALY;BSTAR;MEAN_MOTION_DOT;MEAN_MOTION_DDOT;TYPE
1.00276863;0.0001547;10.3309;33.5043;300.8051;62.257;0;-3.02E-6;0;Weather
1.00276572;0.0001568;10.3315;33.5002;303.5668;277.9258;0;-3.04E-6;0;Weather
1.0027628;0.0001595;10.3321;33.4963;304.942;122.273;0;-3.05E-6;0;Weather
1.00276059;0.0001603;10.3326;33.493;306.8317;300.5761;0;-3.06E-6;0;Weather
1.00275893;0.0001614;10.333;33.4909;307.9046;60.8062;0;-3.07E-6;0;Weather
1.00275645;0.0001628;10.3337;33.4867;309.953;278.7049;0;-3.09E-6;0;Weather
1.00275477;0.0001634;10.3341;33.4842;311.2804;59.6161;0;-3.1E-6;0;Weather
1.00275271;0.0001643;10.3348;33.4805;313.454;258.9901;0;-3.1E-6;0;Weather
1.00274817;0.0001636;10.3363;33.4714;319.2224;32.0444;0;-3.13E-6;0;Weather
1.00274547;0.0001627;10.3374;33.4648;322.739;31.3455;0;-3.13E-6;0;Weather
1.00274532;0.000163;10.3375;33.4644;322.8947;57.0763;0;-3.13E-6;0;Weather
1.00274311;0.0001607;10.3385;33.4581;326.5682;30.3286;0;-3.13E-6;0;Weather
1.00274264;0.0001609;10.3388;33.4566;327.7287;109.9271;0;-3.13E-6;0;Weather
1.00274096;0.0001579;10.3396;33.4513;330.2883;29.4384;0;-3.13E-6;0;Weather
1.0027389;0.0001539;10.3407;33.4442;333.5924;28.9386;0;-3.12E-6;0;Weather
1.00273662;0.0001485;10.3419;33.4362;337.0213;66.7398;0;-3.11E-6;0;Weather
1.00273453;0.0001435;10.3428;33.4297;338.808;29.2897;0;-3.1E-6;0;Weather
1.00273304;0.0001394;10.3435;33.4251;340.5773;252.2081;0;-3.1E-6;0;Weather
1.00273159;0.0001359;10.3441;33.4208;341.1405;100.8735;0;-3.09E-6;0;Weather
1.00273037;0.0001329;10.3445;33.4176;342.0252;256.4195;0;-3.08E-6;0;Weather
1.0027293;0.0001313;10.3449;33.4148;341.9289;31.8237;0;-3.07E-6;0;Weather
1.00272781;0.0001269;10.3454;33.411;342.6729;214.1977;0;-3.06E-6;0;Weather
1.00272585;0.0001239;10.346;33.4061;342.5725;85.9475;0;-3.05E-6;0;Weather
1.00272298;0.000119;10.3469;33.3996;342.6102;36.7362;0;-3.04E-6;0;Weather
1.00272249;0.000118;10.347;33.3984;342.3496;91.9708;0;-3.03E-6;0;Weather
1.00271887;0.0001126;10.348;33.3906;341.2699;98.8013;0;-3.01E-6;0;Weather
1.00271887;0.0001126;10.348;33.3906;341.2699;98.8013;0;-3.02E-6;0;Weather
1.0027172;0.0001098;10.3485;33.3873;340.5543;257.1018;0;-3.0E-6;0;Weather
1.00271325;0.0001059;10.3494;33.3795;338.4055;264.5856;0;-2.99E-6;0;Weather
1.00271325;0.0001059;10.3494;33.3795;338.4055;264.5856;0;-2.98E-6;0;Weather
1.00270881;0.0001034;10.3505;33.3713;335.6445;294.3857;0;-2.97E-6;0;Weather
1.00270321;0.0001021;10.3517;33.3617;332.0536;35.4443;0;-2.95E-6;0;Weather
1.00270095;0.0001035;10.3522;33.3579;330.2738;218.6112;0;-2.94E-6;0;Weather
1.00269855;0.0001031;10.3527;33.3542;328.8287;41.4434;0;-2.94E-6;0;Weather
1.00269762;0.0001037;10.3529;33.3526;328.3773;116.1402;0;-2.93E-6;0;Weather
1.00269524;0.000106;10.3534;33.349;326.7832;296.2189;0;-2.93E-6;0;Weather
1.00269369;0.0001058;10.3537;33.3468;326.0888;46.9982;0;-2.93E-6;0;Weather
1.00268863;0.0001096;10.3547;33.3395;324.5876;51.2922;0;-2.93E-6;0;Weather
1.00268754;0.0001106;10.355;33.3379;324.4536;130.8169;0;-2.93E-6;0;Weather
1.00268343;0.0001152;10.3558;33.3325;323.3172;55.3308;0;-2.94E-6;0;Weather
1.00268261;0.0001159;10.356;33.3313;323.1627;113.6915;0;-2.93E-6;0;Weather
1.00267726;0.0001223;10.357;33.3243;322.9443;119.8068;0;-2.95E-6;0;Weather
1.002676;0.0001244;10.3573;33.3227;323.2389;207.6074;0;-2.96E-6;0;Weather
1.00267462;0.0001267;10.3575;33.3209;323.7004;301.1647;0;-2.96E-6;0;Weather
1.00267047;0.0001315;10.3584;33.3158;324.1916;225.1765;0;-2.98E-6;0;Weather
1.0026666;0.0001364;10.3591;33.3108;325.108;129.7345;0;-3.0E-6;0;Weather
1.00266448;0.0001392;10.3596;33.3081;326.6714;284.1416;0;-3.01E-6;0;Weather
1.00265919;0.0001453;10.3607;33.301;329.4441;310.9259;0;-3.04E-6;0;Weather
1.00265556;0.00015;10.3616;33.296;331.5685;234.9988;0;-3.06E-6;0;Weather
1.00265179;0.0001548;10.3625;33.2902;334.3466;190.6359;0;-3.08E-6;0;Weather
1.00264873;0.0001582;10.3633;33.2851;337.0797;114.93;0;-3.09E-6;0;Weather
1.00264722;0.0001587;10.3638;33.2823;338.888;271.0225;0;-3.1E-6;0;Weather
1.00264601;0.0001599;10.3642;33.2801;340.1491;34.877;0;-3.1E-6;0;Weather
1.00264296;0.0001625;10.3652;33.2736;343.7038;34.1219;0;-3.11E-6;0;Weather
1.00264173;0.0001643;10.3657;33.2707;345.458;187.8604;0;-3.11E-6;0;Weather
1.00281252;0.0001028;10.3666;33.2643;310.2012;245.2311;0;-3.11E-6;0;Weather
1.00281002;0.000111;10.3678;33.2601;308.9788;141.4067;0;-3.11E-6;0;Weather
1.00280884;0.0001097;10.3683;33.2563;308.9471;322.7539;0;-3.11E-6;0;Weather
1.00280655;9.97E-5;10.3693;33.2494;312.7597;325.6897;0;-3.1E-6;0;Weather
1.00280326;8.77E-5;10.3709;33.2387;316.1677;152.0897;0;-3.09E-6;0;Weather
1.00280274;8.55E-5;10.3711;33.2373;316.8992;222.0677;0;-3.09E-6;0;Weather
1.00280205;8.34E-5;10.3713;33.2357;317.6265;306.6961;0;-3.08E-6;0;Weather
1.0028009;8.05E-5;10.3719;33.2321;317.3368;132.6744;0;-3.07E-6;0;Weather
1.00279998;7.7E-5;10.3722;33.2297;317.94;253.841;0;-3.07E-6;0;Weather
1.00279676;6.81E-5;10.3733;33.2211;317.3698;317.8923;0;-3.05E-6;0;Weather
1.00279442;6.25E-5;10.3741;33.2155;315.2376;240.802;0;-3.04E-6;0;Weather
1.00279112;5.74E-5;10.3751;33.208;310.845;253.5836;0;-3.02E-6;0;Weather
1.00278856;5.49E-5;10.3757;33.2026;307.4169;166.0684;0;-3.0E-6;0;Weather
1.00278698;5.27E-5;10.3762;33.1993;304.8529;325.3889;0;-2.99E-6;0;Weather
1.00278314;5.11E-5;10.3771;33.1918;297.7952;337.6518;0;-2.97E-6;0;Weather
1.00278289;5.1E-5;10.3771;33.1913;297.4817;0.0058;0;-2.97E-6;0;Weather
1.0027788;5.18E-5;10.378;33.1837;290.4174;12.1656;0;-2.95E-6;0;Weather
1.00277475;5.51E-5;10.3789;33.1766;284.6277;1.1905;0;-2.93E-6;0;Weather
1.00277129;5.9E-5;10.3797;33.1709;281.5225;284.2917;0;-2.92E-6;0;Weather
1.00277022;6.02E-5;10.3799;33.1692;280.4635;10.7724;0;-2.92E-6;0;Weather
1.00276786;6.28E-5;10.3804;33.1655;279.4493;198.1189;0;-2.91E-6;0;Weather
1.00276661;6.48E-5;10.3807;33.1636;279.0983;292.2721;0;-2.91E-6;0;Weather
1.00276578;6.57E-5;10.3808;33.1624;278.5911;355.8989;0;-2.91E-6;0;Weather
1.0027633;6.78E-5;10.3813;33.1587;277.5747;180.8864;0;-2.9E-6;0;Weather
1.00276082;7.16E-5;10.3818;33.1552;277.671;2.2034;0;-2.9E-6;0;Weather
1.00275824;7.38E-5;10.3823;33.1516;277.1242;187.4821;0;-2.9E-6;0;Weather
1.00275568;7.74E-5;10.3828;33.1481;278.2166;7.3232;0;-2.9E-6;0;Weather
1.0027508;8.21E-5;10.3837;33.1417;279.7107;346.2796;0;-2.91E-6;0;Weather
1.00274642;8.59E-5;10.3846;33.1362;281.4838;287.0154;0;-2.92E-6;0;Weather
1.00273983;9.08E-5;10.3858;33.1279;285.5361;13.9238;0;-2.95E-6;0;Weather
1.00273535;9.33E-5;10.3867;33.1223;288.9482;330.7334;0;-2.97E-6;0;Weather
1.00273142;9.56E-5;10.3875;33.1173;291.8323;251.8705;0;-2.99E-6;0;Weather
1.0027297;9.52E-5;10.3878;33.1149;293.9464;17.3298;0;-3.0E-6;0;Weather
1.0027267;9.63E-5;10.3884;33.1109;296.7146;248.3433;0;-3.02E-6;0;Weather
1.00272506;9.51E-5;10.3888;33.1084;298.959;18.4173;0;-3.02E-6;0;Weather
1.00272208;9.56E-5;10.3895;33.104;302.4727;268.5495;0;-3.04E-6;0;Weather
1.00272138;9.41E-5;10.3896;33.1028;303.7503;333.5852;0;-3.04E-6;0;Weather
1.00271931;9.51E-5;10.3901;33.0995;306.4164;155.1948;0;-3.05E-6;0;Weather
1.00271751;9.26E-5;10.3906;33.0963;309.4605;333.321;0;-3.07E-6;0;Weather
1.00271567;9.32E-5;10.3911;33.093;312.5061;154.8999;0;-3.07E-6;0;Weather
1.00271386;9.0E-5;10.3917;33.0892;315.7797;355.6688;0;-3.08E-6;0;Weather
1.00271086;8.72E-5;10.3927;33.0825;321.7633;353.9382;0;-3.09E-6;0;Weather
1.0027091;8.62E-5;10.3933;33.0784;326.3696;217.6543;0;-3.09E-6;0;Weather
1.00270667;8.21E-5;10.3943;33.0717;332.7103;204.7397;0;-3.09E-6;0;Weather
1.00270648;8.18E-5;10.3943;33.0713;332.9735;230.3384;0;-3.09E-6;0;Weather
1.00270419;7.74E-5;10.3953;33.0645;339.1896;220.0946;0;-3.09E-6;0;Weather
1.00270362;7.58E-5;10.3955;33.0628;339.8528;307.5763;0;-3.09E-6;0;Weather
1.00270132;7.12E-5;10.3965;33.0558;345.3782;307.2096;0;-3.08E-6;0;Weather
1.0027002;6.8E-5;10.397;33.0522;349.3166;128.4833;0;-3.08E-6;0;Weather
1.0026991;6.56E-5;10.3974;33.0492;351.0342;283.0559;0;-3.07E-6;0;Weather
1.00269724;6.07E-5;10.3982;33.0438;355.7535;192.8564;0;-3.07E-6;0;Weather
1.00269642;5.89E-5;10.3984;33.0415;356.6486;307.0705;0;-3.06E-6;0;Weather
1.00269459;5.37E-5;10.3991;33.0366;0.9697;190.4468;0;-3.05E-6;0;Weather
1.00269388;5.25E-5;10.3993;33.0348;1.1419;284.2354;0;-3.05E-6;0;Weather
1.00269171;4.65E-5;10.4;33.0294;4.5624;190.6124;0;-3.04E-6;0;Weather
1.00268937;4.09E-5;10.4007;33.0238;6.7502;109.22;0;-3.02E-6;0;Weather
1.00268861;3.88E-5;10.4009;33.0221;8.4064;188.5939;0;-3.02E-6;0;Weather
1.00268772;3.74E-5;10.4012;33.0201;9.4969;287.86;0;-3.01E-6;0;Weather
1.00268502;3.08E-5;10.4019;33.0143;11.2087;212.4245;0;-3.0E-6;0;Weather
1.00268428;2.98E-5;10.4021;33.0127;11.608;290.7403;0;-2.99E-6;0;Weather
1.00268032;2.2E-5;10.403;33.0048;11.1377;318.7225;0;-2.98E-6;0;Weather
1.00267889;1.96E-5;10.4033;33.002;6.9262;99.8663;0;-2.97E-6;0;Weather
1.0026748;1.32E-5;10.4042;32.9945;354.3113;119.1939;0;-2.95E-6;0;Weather
1.00267236;1.01E-5;10.4047;32.9903;340.3119;339.2394;0;-2.94E-6;0;Weather
1.00266958;9.9E-6;10.4053;32.9855;314.0395;235.2184;0;-2.93E-6;0;Weather
1.00266587;1.17E-5;10.406;32.9796;289.6932;195.4385;0;-2.91E-6;0;Weather
1.00266472;1.35E-5;10.4063;32.9778;284.631;287.9094;0;-2.91E-6;0;Weather
1.00266104;1.66E-5;10.407;32.9722;274.4167;216.9729;0;-2.9E-6;0;Weather
1.00266022;1.8E-5;10.4071;32.971;274.6222;275.9311;0;-2.9E-6;0;Weather
1.00265556;2.3E-5;10.408;32.9644;271.363;256.0936;0;-2.9E-6;0;Weather
1.00265107;2.77E-5;10.4088;32.9584;271.3514;207.4814;0;-2.9E-6;0;Weather
1.00264998;2.93E-5;10.409;32.957;274.1025;282.0143;0;-2.91E-6;0;Weather
1.00264576;3.33E-5;10.4097;32.9516;275.2382;206.5034;0;-2.91E-6;0;Weather
1.00264459;3.49E-5;10.41;32.9502;278.2677;285.6103;0;-2.92E-6;0;Weather
1.00264083;3.82E-5;10.4106;32.9455;280.1338;172.8761;0;-2.93E-6;0;Weather
1.00263968;3.91E-5;10.4108;32.944;282.4564;253.3245;0;-2.93E-6;0;Weather
1.00263214;4.42E-5;10.4122;32.9346;292.9777;37.4235;0;-2.96E-6;0;Weather
1.00262846;4.63E-5;10.4129;32.9299;298.7401;301.3333;0;-2.98E-6;0;Weather
1.00262248;4.89E-5;10.4141;32.9218;309.0311;23.1221;0;-3.02E-6;0;Weather
